ONEWEB-0414             
1 50491U 21132Y   25041.79437026  .00000092  00000+0  20142-3 0  9990
2 50491  87.9049  73.1775 0001650 100.5637 259.5681 13.18686347156861
ONEWEB-0417             
1 50492U 21132Z   25041.57463774  .00000045  00000+0  81541-4 0  9995
2 50492  87.9055  73.2409 0001773  89.1754 270.9582 13.18687784156810
ONEWEB-0418             
1 50493U 21132AA  25041.58398802  .00000056  00000+0  10893-3 0  9999
2 50493  87.9051  73.2329 0001686  82.4626 277.6698 13.18685940158158
ONEWEB-0419             
1 50494U 21132AB  25041.60151271  .00000067  00000+0  13787-3 0  9997
2 50494  87.9047  73.2380 0002007  85.3876 274.7485 13.18685825156790
ONEWEB-0420             
1 50495U 21132AC  25041.79595308  .00000112  00000+0  25086-3 0  9997
2 50495  87.9048  73.2081 0002078 101.7857 258.3508 13.18686679156815
ONEWEB-0421             
1 50496U 21132AD  25041.78962399  .00000133  00000+0  30364-3 0  9993
2 50496  87.9055  73.1935 0001637 103.4411 256.6903 13.18687614156850
ONEWEB-0424             
1 50497U 21132AE  25041.59677478  .00000040  00000+0  68802-4 0  9990
2 50497  87.9049  73.2267 0002195  84.3632 275.7750 13.18685619156850
ONEWEB-0426             
1 50498U 21132AF  25041.78646969  .00000131  00000+0  29927-3 0  9998
2 50498  87.9045  73.1966 0001231  86.9073 273.2200 13.18686673156820
